{"type": "FeatureCollection", "features": [ {"type": "Feature", "properties": {"norad_id": 29808, "name": "FENGYUN 1C DEB", "group": "fengyun-1c-debris", "lat": 28.081039813570907, "lon": 98.60134042110671, "alt_km": 480.7656768673878, "timestamp": "2025-12-19T22:41:52.663344+00:00", "meta": {"OBJECT_NAME": "FENGYUN 1C DEB", "OBJECT_ID": "1999-025DA", "EPOCH": "2025-12-19T06:58:48.033408", "MEAN_MOTION": 15.25937858, "ECCENTRICITY": 0.0019633, "INCLINATION": 99.0135, "RA_OF_ASC_NODE": 272.9544, "ARG_OF_PERICENTER": 85.6501, "MEAN_ANOMALY": 69.7161, "EPHEMERIS_TYPE": 0, "CLASSIFICATION_TYPE": "U", "NORAD_CAT_ID": 29808, "ELEMENT_SET_NO": 999, "REV_AT_EPOCH": 98325, "BSTAR": 0.0094239, "MEAN_MOTION_DOT": 0.00251103, "MEAN_MOTION_DDOT": 0}, "tle": {"line1": "1 29808U 99025DA  25353.29083372  .00251103  00000+0  94239-2 0  9994", "line2": "2 29808  99.0135 272.9544 0019633  85.6501  69.7161 15.25937858983256"}}, "geometry": {"type": "Point", "coordinates": [98.60134042110671, 28.081039813570907]}}, {"type": "Feature", "properties": {"norad_id": 29809, "name": "FENGYUN 1C DEB", "group": "fengyun-1c-debris", "lat": -34.28464206036626, "lon": 131.71011935028352, "alt_km": 775.2662187540591, "timestamp": "2025-12-19T22:41:52.663354+00:00", "meta": {"OBJECT_NAME": "FENGYUN 1C DEB", "OBJECT_ID": "1999-025DB", "EPOCH": "2025-12-19T09:07:47.239968", "MEAN_MOTION": 14.46608568, "ECCENTRICITY": 0.0115732, "INCLINATION": 98.8609, "RA_OF_ASC_NODE": 317.2242, "ARG_OF_PERICENTER": 330.0786, "MEAN_ANOMALY": 183.3117, "EPHEMERIS_TYPE": 0, "CLASSIFICATION_TYPE": "U", "NORAD_CAT_ID": 29809, "ELEMENT_SET_NO": 999, "REV_AT_EPOCH": 99563, "BSTAR": 0.00025517, "MEAN_MOTION_DOT": 9.46e-06, "MEAN_MOTION_DDOT": 0}, "tle": {"line1": "1 29809U 99025DB  25353.38040787  .00000946  00000+0  25517-3 0  9999", "line2": "2 29809  98.8609 317.2242 0115732 330.0786 183.3117 14.46608568995631"}}, "geometry": {"type": "Point", "coordinates": [131.71011935028352, -34.28464206036626]}}, {"type": "Feature", "properties": {"norad_id": 29810, "name": "FENGYUN 1C DEB", "group": "fengyun-1c-debris", "lat": 32.05484859522217, "lon": -143.00198866022595, "alt_km": 833.6415585369277, "timestamp": "2025-12-19T22:41:52.663365+00:00", "meta": {"OBJECT_NAME": "FENGYUN 1C DEB", "OBJECT_ID": "1999-025DC", "EPOCH": "2025-12-18T23:03:09.080928", "MEAN_MOTION": 14.29138412, "ECCENTRICITY": 0.00666402, "INCLINATION": 99.2061, "RA_OF_ASC_NODE": 30.1294, "ARG_OF_PERICENTER": 1.0764, "MEAN_ANOMALY": 119.8566, "EPHEMERIS_TYPE": 0, "CLASSIFICATION_TYPE": "U", "NORAD_CAT_ID": 29810, "ELEMENT_SET_NO": 999, "REV_AT_EPOCH": 98466, "BSTAR": 0.00021413288, "MEAN_MOTION_DOT": 5.07e-06, "MEAN_MOTION_DDOT": 0}, "tle": {"line1": "1 29810U 99025DC  25352.96052177  .00000507  00000+0  21413-3 0  9994", "line2": "2 29810  99.2061  30.1294 0066640   1.0764 119.8566 14.29138412984662"}}, "geometry": {"type": "Point", "coordinates": [-143.00198866022595, 32.05484859522217]}}, {"type": "Feature", "properties": {"norad_id": 29812, "name": "FENGYUN 1C DEB", "group": "fengyun-1c-debris", "lat": 42.73459736250968, "lon": 174.38854142502626, "alt_km": 892.4690732932149, "timestamp": "2025-12-19T22:41:52.663375+00:00", "meta": {"OBJECT_NAME": "FENGYUN 1C DEB", "OBJECT_ID": "1999-025DE", "EPOCH": "2025-12-19T19:08:47.973408", "MEAN_MOTION": 14.02010991, "ECCENTRICITY": 0.0143874, "INCLINATION": 98.3491, "RA_OF_ASC_NODE": 182.0506, "ARG_OF_PERICENTER": 307.933, "MEAN_ANOMALY": 67.3826, "EPHEMERIS_TYPE": 0, "CLASSIFICATION_TYPE": "U", "NORAD_CAT_ID": 29812, "ELEMENT_SET_NO": 999, "REV_AT_EPOCH": 96271, "BSTAR": 0.00079236, "MEAN_MOTION_DOT": 1.283e-05, "MEAN_MOTION_DDOT": 0}, "tle": {"line1": "1 29812U 99025DE  25353.79777747  .00001283  00000+0  79236-3 0  9993", "line2": "2 29812  98.3491 182.0506 0143874 307.9330  67.3826 14.02010991962716"}}, "geometry": {"type": "Point", "coordinates": [174.38854142502626, 42.73459736250968]}}, {"type": "Feature", "properties": {"norad_id": 29813, "name": "FENGYUN 1C DEB", "group": "fengyun-1c-debris", "lat": -44.251694920232566, "lon": -175.02324189499012, "alt_km": 859.8936227335798, "timestamp": "2025-12-19T22:41:52.663385+00:00", "meta": {"OBJECT_NAME": "FENGYUN 1C DEB", "OBJECT_ID": "1999-025DF", "EPOCH": "2025-12-18T12:18:23.635584", "MEAN_MOTION": 14.09453073, "ECCENTRICITY": 0.00120746, "INCLINATION": 98.7269, "RA_OF_ASC_NODE": 12.1942, "ARG_OF_PERICENTER": 204.9178, "MEAN_ANOMALY": 312.9411, "EPHEMERIS_TYPE": 0, "CLASSIFICATION_TYPE": "U", "NORAD_CAT_ID": 29813, "ELEMENT_SET_NO": 999, "REV_AT_EPOCH": 97341, "BSTAR": 0.00011810672, "MEAN_MOTION_DOT": 1.64e-06, "MEAN_MOTION_DDOT": 0}, "tle": {"line1": "1 29813U 99025DF  25352.51277356  .00000164  00000+0  11811-3 0  9996", "line2": "2 29813  98.7269  12.1942 0012074 204.9178 312.9411 14.09453073973411"}}, "geometry": {"type": "Point", "coordinates": [-175.02324189499012, -44.251694920232566]}}, {"type": "Feature", "properties": {"norad_id": 29815, "name": "FENGYUN 1C DEB", "group": "fengyun-1c-debris", "lat": 10.22487504357916, "lon": -176.23289870499573, "alt_km": 610.059540752598, "timestamp": "2025-12-19T22:41:52.663395+00:00", "meta": {"OBJECT_NAME": "FENGYUN 1C DEB", "OBJECT_ID": "1999-025DH", "EPOCH": "2025-12-19T12:05:56.570208", "MEAN_MOTION": 14.63753872, "ECCENTRICITY": 0.0184127, "INCLINATION": 98.0554, "RA_OF_ASC_NODE": 1.8714, "ARG_OF_PERICENTER": 114.0049, "MEAN_ANOMALY": 248.0549, "EPHEMERIS_TYPE": 0, "CLASSIFICATION_TYPE": "U", "NORAD_CAT_ID": 29815, "ELEMENT_SET_NO": 999, "REV_AT_EPOCH": 99954, "BSTAR": 0.00034284, "MEAN_MOTION_DOT": 2.233e-05, "MEAN_MOTION_DDOT": 0}, "tle": {"line1": "1 29815U 99025DH  25353.50412697  .00002233  00000+0  34284-3 0  9995", "line2": "2 29815  98.0554   1.8714 0184127 114.0049 248.0549 14.63753872999545"}}, "geometry": {"type": "Point", "coordinates": [-176.23289870499573, 10.22487504357916]}}, {"type": "Feature", "properties": {"norad_id": 29816, "name": "FENGYUN 1C DEB", "group": "fengyun-1c-debris", "lat": -13.726429707988336, "lon": 32.14739990906565, "alt_km": 613.8500546520272, "timestamp": "2025-12-19T22:41:52.663405+00:00", "meta": {"OBJECT_NAME": "FENGYUN 1C DEB", "OBJECT_ID": "1999-025DJ", "EPOCH": "2025-12-19T13:38:50.572032", "MEAN_MOTION": 14.44357024, "ECCENTRICITY": 0.0237887, "INCLINATION": 98.9927, "RA_OF_ASC_NODE": 213.9652, "ARG_OF_PERICENTER": 156.7809, "MEAN_ANOMALY": 235.6208, "EPHEMERIS_TYPE": 0, "CLASSIFICATION_TYPE": "U", "NORAD_CAT_ID": 29816, "ELEMENT_SET_NO": 999, "REV_AT_EPOCH": 98286, "BSTAR": 0.0005982, "MEAN_MOTION_DOT": 2.855e-05, "MEAN_MOTION_DDOT": 0}, "tle": {"line1": "1 29816U 99025DJ  25353.56864088  .00002855  00000+0  59820-3 0  9990", "line2": "2 29816  98.9927 213.9652 0237887 156.7809 235.6208 14.44357024982864"}}, "geometry": {"type": "Point", "coordinates": [32.14739990906565, -13.726429707988336]}}, {"type": "Feature", "properties": {"norad_id": 29817, "name": "FENGYUN 1C DEB", "group": "fengyun-1c-debris", "lat": 70.52476700491185, "lon": -42.358832915490595, "alt_km": 836.0429148238809, "timestamp": "2025-12-19T22:41:52.663415+00:00", "meta": {"OBJECT_NAME": "FENGYUN 1C DEB", "OBJECT_ID": "1999-025DK", "EPOCH": "2025-12-19T11:11:08.504160", "MEAN_MOTION": 14.142606, "ECCENTRICITY": 0.0011916, "INCLINATION": 98.5577, "RA_OF_ASC_NODE": 342.3829, "ARG_OF_PERICENTER": 356.7829, "MEAN_ANOMALY": 154.731, "EPHEMERIS_TYPE": 0, "CLASSIFICATION_TYPE": "U", "NORAD_CAT_ID": 29817, "ELEMENT_SET_NO": 999, "REV_AT_EPOCH": 97490, "BSTAR": 0.00025209, "MEAN_MOTION_DOT": 4.4e-06, "MEAN_MOTION_DDOT": 0}, "tle": {"line1": "1 29817U 99025DK  25353.46607065  .00000440  00000+0  25209-3 0  9992", "line2": "2 29817  98.5577 342.3829 0011916 356.7829 154.7310 14.14260600974903"}}, "geometry": {"type": "Point", "coordinates": [-42.358832915490595, 70.52476700491185]}}, {"type": "Feature", "properties": {"norad_id": 29818, "name": "FENGYUN 1C DEB", "group": "fengyun-1c-debris", "lat": -80.60715444731929, "lon": -60.91547388673457, "alt_km": 887.7653038701237, "timestamp": "2025-12-19T22:41:52.663426+00:00", "meta": {"OBJECT_NAME": "FENGYUN 1C DEB", "OBJECT_ID": "1999-025DL", "EPOCH": "2025-12-19T11:42:24.153984", "MEAN_MOTION": 14.04505154, "ECCENTRICITY": 0.011489, "INCLINATION": 98.7208, "RA_OF_ASC_NODE": 230.5389, "ARG_OF_PERICENTER": 6.9531, "MEAN_ANOMALY": 113.5547, "EPHEMERIS_TYPE": 0, "CLASSIFICATION_TYPE": "U", "NORAD_CAT_ID": 29818, "ELEMENT_SET_NO": 999, "REV_AT_EPOCH": 96904, "BSTAR": 0.00021395, "MEAN_MOTION_DOT": 3.2e-06, "MEAN_MOTION_DDOT": 0}, "tle": {"line1": "1 29818U 99025DL  25353.48777956  .00000320  00000+0  21395-3 0  9991", "line2": "2 29818  98.7208 230.5389 0114890   6.9531 113.5547 14.04505154969044"}}, "geometry": {"type": "Point", "coordinates": [-60.91547388673457, -80.60715444731929]}}, {"type": "Feature", "properties": {"norad_id": 29819, "name": "FENGYUN 1C DEB", "group": "fengyun-1c-debris", "lat": -34.34127870796122, "lon": -16.58143126074683, "alt_km": 869.6113716508298, "timestamp": "2025-12-19T22:41:52.663436+00:00", "meta": {"OBJECT_NAME": "FENGYUN 1C DEB", "OBJECT_ID": "1999-025DM", "EPOCH": "2025-12-19T18:17:58.053408", "MEAN_MOTION": 14.02207119, "ECCENTRICITY": 0.0191494, "INCLINATION": 98.7335, "RA_OF_ASC_NODE": 337.2145, "ARG_OF_PERICENTER": 47.5064, "MEAN_ANOMALY": 75.3304, "EPHEMERIS_TYPE": 0, "CLASSIFICATION_TYPE": "U", "NORAD_CAT_ID": 29819, "ELEMENT_SET_NO": 999, "REV_AT_EPOCH": 96718, "BSTAR": 0.00032889, "MEAN_MOTION_DOT": 5.5e-06, "MEAN_MOTION_DDOT": 0}, "tle": {"line1": "1 29819U 99025DM  25353.76247747  .00000550  00000+0  32889-3 0  9998", "line2": "2 29819  98.7335 337.2145 0191494  47.5064  75.3304 14.02207119967185"}}, "geometry": {"type": "Point", "coordinates": [-16.58143126074683, -34.34127870796122]}}]}